{
  "norad_id": 68347,
  "name": "STARLINK-37136",
  "history": [
    {
      "epoch": "2026-03-31T16:00:01.999584Z",
      "apogee_km": 319.08889106364404,
      "perigee_km": 318.176791011294,
      "latitude_deg": -31.604394852340814,
      "longitude_deg": 156.18988635175714,
      "height_km": 328.62648590488806,
      "semi_major_axis_km": 6696.769841037469,
      "eccentricity": 6.81e-05,
      "inclination_deg": 53.1593,
      "raan_deg": 252.5226,
      "arg_perigee_deg": 79.0676,
      "mean_anomaly_deg": 240.3322,
      "mean_motion_rev_day": 15.84180643
    }
  ]
}